STARLINK-3828           
1 52469U 22049U   26068.26020820 -.00000918  00000+0 -39567-4 0  9998
2 52469  53.2170  61.0537 0001418  84.6305 275.4849 15.08840083212188
LEMUR-2-KREMPEL-BRO2    
1 63353U 25061C   26068.86379735  .00007837  00000+0  44347-3 0  9993
2 63353  97.5616  45.5365 0017925 236.8576 123.0936 15.13192951 52586
